ONEWEB-0435             
1 51632U 22012L   26196.90532934  .00000530  00000+0  14810-2 0  9996
2 51632  87.8815  30.5530 0001878  98.0629 262.0711 13.10377992213074
ONEWEB-0436             
1 51633U 22012M   26196.91608095  .00000006  00000+0 -17606-4 0  9997
2 51633  87.9155   0.1321 0001917 100.1743 259.9605 13.17647759217462
ONEWEB-0438             
1 51634U 22012N   26196.96639016 -.00000136  00000+0 -42472-3 0  9993
2 51634  87.8817  30.5454 0001813  80.2677 279.8655 13.10378437213111
ONEWEB-0439             
1 51635U 22012P   26196.51165631  .00000106  00000+0  26676-3 0  9995
2 51635  87.8819  30.6232 0001764  86.1527 273.9802 13.10377407213039
ONEWEB-0442             
1 51636U 22012Q   26196.90849695  .00000002  00000+0 -28783-4 0  9996
2 51636  87.9145   0.1641 0001707  74.3944 285.7376 13.17650998217451
ONEWEB-0443             
1 51637U 22012R   26196.92789139 -.00000010  00000+0 -57830-4 0  9990
2 51637  87.9146   0.1610 0001524  98.0646 262.0659 13.17647926217503
ONEWEB-0444             
1 51638U 22012S   26196.95959960 -.00000430  00000+0 -12674-2 0  9996
2 51638  87.8820  30.5326 0001669  90.5708 269.5610 13.10377948213107
ONEWEB-0445             
1 51639U 22012T   26196.52183455  .00000600  00000+0  16831-2 0  9994
2 51639  87.8825  30.6100 0001955  86.0227 274.1124 13.10378363213056
ONEWEB-0446             
1 51640U 22012U   26196.49975538 -.00000485  00000+0 -14270-2 0  9991
2 51640  87.8817  30.6413 0002138  82.8695 277.2675 13.10374230213035
ONEWEB-0448             
1 51641U 22012V   26196.96299465 -.00000327  00000+0 -97203-3 0  9995
2 51641  87.8816  30.5448 0001792  87.6313 272.5020 13.10378844213067
ONEWEB-0449             
1 51642U 22012W   26196.50994765  .00000030  00000+0  51002-4 0  9998
2 51642  87.8823  30.6220 0001871  68.1607 291.9719 13.10376920213011
ONEWEB-0451             
1 51643U 22012X   26196.91270142  .00000016  00000+0  80907-5 0  9991
2 51643  87.9157   0.1311 0001698  88.9954 271.1373 13.17651276217442
ONEWEB-0452             
1 51644U 22012Y   26196.91101902 -.00000012  00000+0 -63899-4 0  9997
2 51644  87.9148   0.1655 0001558  92.3048 267.8262 13.17647497217452
ONEWEB-0456             
1 51646U 22012AA  26196.51842899  .00000449  00000+0  12495-2 0  9998
2 51646  87.8832  30.6095 0001791  92.0420 268.0913 13.10374681213052
ONEWEB-0457             
1 51647U 22012AB  26196.95437233 -.00000833  00000+0 -24221-2 0  9998
2 51647  87.8817  30.5382 0002099  79.6446 280.4918 13.10374836213117
ONEWEB-0458             
1 51648U 22012AC  26196.89938127  .00000258  00000+0  70225-3 0  9995
2 51648  87.8822  30.5375 0001630  86.3449 273.7865 13.10375578213068
