{"fetched_at":"2026-07-16T06:42:33.601Z","source":"https://celestrak.org/NORAD/elements/gp.php?GROUP=oneweb&FORMAT=JSON","constellation":"oneweb","records":[{"OBJECT_NAME":"ONEWEB-0435","OBJECT_ID":"2022-012L","EPOCH":"2026-07-15T21:43:40.454976","CLASSIFICATION_TYPE":"U","MEAN_MOTION":13.10377992,"ECCENTRICITY":0.00018788,"INCLINATION":87.8815,"RA_OF_ASC_NODE":30.553,"ARG_OF_PERICENTER":98.0629,"MEAN_ANOMALY":262.0711,"EPHEMERIS_TYPE":0,"NORAD_CAT_ID":51632,"ELEMENT_SET_NO":999,"REV_AT_EPOCH":21307,"BSTAR":0.0014810432,"MEAN_MOTION_DOT":0.0000053,"MEAN_MOTION_DDOT":0},{"OBJECT_NAME":"ONEWEB-0436","OBJECT_ID":"2022-012M","EPOCH":"2026-07-15T21:59:09.394080","CLASSIFICATION_TYPE":"U","MEAN_MOTION":13.17647759,"ECCENTRICITY":0.00019178,"INCLINATION":87.9155,"RA_OF_ASC_NODE":0.1321,"ARG_OF_PERICENTER":100.1743,"MEAN_ANOMALY":259.9605,"EPHEMERIS_TYPE":0,"NORAD_CAT_ID":51633,"ELEMENT_SET_NO":999,"REV_AT_EPOCH":21746,"BSTAR":-0.000017606208,"MEAN_MOTION_DOT":6e-8,"MEAN_MOTION_DDOT":0},{"OBJECT_NAME":"ONEWEB-0438","OBJECT_ID":"2022-012N","EPOCH":"2026-07-15T23:11:36.109824","CLASSIFICATION_TYPE":"U","MEAN_MOTION":13.10378437,"ECCENTRICITY":0.00018135,"INCLINATION":87.8817,"RA_OF_ASC_NODE":30.5454,"ARG_OF_PERICENTER":80.2677,"MEAN_ANOMALY":279.8655,"EPHEMERIS_TYPE":0,"NORAD_CAT_ID":51634,"ELEMENT_SET_NO":999,"REV_AT_EPOCH":21311,"BSTAR":-0.00042471567,"MEAN_MOTION_DOT":-0.00000136,"MEAN_MOTION_DDOT":0},{"OBJECT_NAME":"ONEWEB-0439","OBJECT_ID":"2022-012P","EPOCH":"2026-07-15T12:16:47.105184","CLASSIFICATION_TYPE":"U","MEAN_MOTION":13.10377407,"ECCENTRICITY":0.0001764,"INCLINATION":87.8819,"RA_OF_ASC_NODE":30.6232,"ARG_OF_PERICENTER":86.1527,"MEAN_ANOMALY":273.9802,"EPHEMERIS_TYPE":0,"NORAD_CAT_ID":51635,"ELEMENT_SET_NO":999,"REV_AT_EPOCH":21303,"BSTAR":0.00026675611,"MEAN_MOTION_DOT":0.00000106,"MEAN_MOTION_DDOT":0},{"OBJECT_NAME":"ONEWEB-0442","OBJECT_ID":"2022-012Q","EPOCH":"2026-07-15T21:48:14.136480","CLASSIFICATION_TYPE":"U","MEAN_MOTION":13.17650998,"ECCENTRICITY":0.00017073,"INCLINATION":87.9145,"RA_OF_ASC_NODE":0.1641,"ARG_OF_PERICENTER":74.3944,"MEAN_ANOMALY":285.7376,"EPHEMERIS_TYPE":0,"NORAD_CAT_ID":51636,"ELEMENT_SET_NO":999,"REV_AT_EPOCH":21745,"BSTAR":-0.000028783092,"MEAN_MOTION_DOT":2e-8,"MEAN_MOTION_DDOT":0},{"OBJECT_NAME":"ONEWEB-0443","OBJECT_ID":"2022-012R","EPOCH":"2026-07-15T22:16:09.816096","CLASSIFICATION_TYPE":"U","MEAN_MOTION":13.17647926,"ECCENTRICITY":0.0001524,"INCLINATION":87.9146,"RA_OF_ASC_NODE":0.161,"ARG_OF_PERICENTER":98.0646,"MEAN_ANOMALY":262.0659,"EPHEMERIS_TYPE":0,"NORAD_CAT_ID":51637,"ELEMENT_SET_NO":999,"REV_AT_EPOCH":21750,"BSTAR":-0.000057830371,"MEAN_MOTION_DOT":-1e-7,"MEAN_MOTION_DDOT":0},{"OBJECT_NAME":"ONEWEB-0444","OBJECT_ID":"2022-012S","EPOCH":"2026-07-15T23:01:49.405440","CLASSIFICATION_TYPE":"U","MEAN_MOTION":13.10377948,"ECCENTRICITY":0.00016691,"INCLINATION":87.882,"RA_OF_ASC_NODE":30.5326,"ARG_OF_PERICENTER":90.5708,"MEAN_ANOMALY":269.561,"EPHEMERIS_TYPE":0,"NORAD_CAT_ID":51638,"ELEMENT_SET_NO":999,"REV_AT_EPOCH":21310,"BSTAR":-0.0012673799,"MEAN_MOTION_DOT":-0.0000043,"MEAN_MOTION_DDOT":0},{"OBJECT_NAME":"ONEWEB-0445","OBJECT_ID":"2022-012T","EPOCH":"2026-07-15T12:31:26.505120","CLASSIFICATION_TYPE":"U","MEAN_MOTION":13.10378363,"ECCENTRICITY":0.00019559,"INCLINATION":87.8825,"RA_OF_ASC_NODE":30.61,"ARG_OF_PERICENTER":86.0227,"MEAN_ANOMALY":274.1124,"EPHEMERIS_TYPE":0,"NORAD_CAT_ID":51639,"ELEMENT_SET_NO":999,"REV_AT_EPOCH":21305,"BSTAR":0.0016830998,"MEAN_MOTION_DOT":0.000006,"MEAN_MOTION_DDOT":0},{"OBJECT_NAME":"ONEWEB-0446","OBJECT_ID":"2022-012U","EPOCH":"2026-07-15T11:59:38.864832","CLASSIFICATION_TYPE":"U","MEAN_MOTION":13.1037423,"ECCENTRICITY":0.00021387,"INCLINATION":87.8817,"RA_OF_ASC_NODE":30.6413,"ARG_OF_PERICENTER":82.8695,"MEAN_ANOMALY":277.2675,"EPHEMERIS_TYPE":0,"NORAD_CAT_ID":51640,"ELEMENT_SET_NO":999,"REV_AT_EPOCH":21303,"BSTAR":-0.001427007,"MEAN_MOTION_DOT":-0.00000485,"MEAN_MOTION_DDOT":0},{"OBJECT_NAME":"ONEWEB-0448","OBJECT_ID":"2022-012V","EPOCH":"2026-07-15T23:06:42.737760","CLASSIFICATION_TYPE":"U","MEAN_MOTION":13.10378844,"ECCENTRICITY":0.00017926,"INCLINATION":87.8816,"RA_OF_ASC_NODE":30.5448,"ARG_OF_PERICENTER":87.6313,"MEAN_ANOMALY":272.502,"EPHEMERIS_TYPE":0,"NORAD_CAT_ID":51641,"ELEMENT_SET_NO":999,"REV_AT_EPOCH":21306,"BSTAR":-0.00097203029,"MEAN_MOTION_DOT":-0.00000327,"MEAN_MOTION_DDOT":0},{"OBJECT_NAME":"ONEWEB-0449","OBJECT_ID":"2022-012W","EPOCH":"2026-07-15T12:14:19.476960","CLASSIFICATION_TYPE":"U","MEAN_MOTION":13.1037692,"ECCENTRICITY":0.00018718,"INCLINATION":87.8823,"RA_OF_ASC_NODE":30.622,"ARG_OF_PERICENTER":68.1607,"MEAN_ANOMALY":291.9719,"EPHEMERIS_TYPE":0,"NORAD_CAT_ID":51642,"ELEMENT_SET_NO":999,"REV_AT_EPOCH":21301,"BSTAR":0.000051002347,"MEAN_MOTION_DOT":3e-7,"MEAN_MOTION_DDOT":0},{"OBJECT_NAME":"ONEWEB-0451","OBJECT_ID":"2022-012X","EPOCH":"2026-07-15T21:54:17.402688","CLASSIFICATION_TYPE":"U","MEAN_MOTION":13.17651276,"ECCENTRICITY":0.00016986,"INCLINATION":87.9157,"RA_OF_ASC_NODE":0.1311,"ARG_OF_PERICENTER":88.9954,"MEAN_ANOMALY":271.1373,"EPHEMERIS_TYPE":0,"NORAD_CAT_ID":51643,"ELEMENT_SET_NO":999,"REV_AT_EPOCH":21744,"BSTAR":0.000008090686,"MEAN_MOTION_DOT":1.6e-7,"MEAN_MOTION_DDOT":0},{"OBJECT_NAME":"ONEWEB-0452","OBJECT_ID":"2022-012Y","EPOCH":"2026-07-15T21:51:52.043328","CLASSIFICATION_TYPE":"U","MEAN_MOTION":13.17647497,"ECCENTRICITY":0.00015589,"INCLINATION":87.9148,"RA_OF_ASC_NODE":0.1655,"ARG_OF_PERICENTER":92.3048,"MEAN_ANOMALY":267.8262,"EPHEMERIS_TYPE":0,"NORAD_CAT_ID":51644,"ELEMENT_SET_NO":999,"REV_AT_EPOCH":21745,"BSTAR":-0.000063898503,"MEAN_MOTION_DOT":-1.2e-7,"MEAN_MOTION_DDOT":0},{"OBJECT_NAME":"ONEWEB-0456","OBJECT_ID":"2022-012AA","EPOCH":"2026-07-15T12:26:32.264736","CLASSIFICATION_TYPE":"U","MEAN_MOTION":13.10374681,"ECCENTRICITY":0.00017914,"INCLINATION":87.8832,"RA_OF_ASC_NODE":30.6095,"ARG_OF_PERICENTER":92.042,"MEAN_ANOMALY":268.0913,"EPHEMERIS_TYPE":0,"NORAD_CAT_ID":51646,"ELEMENT_SET_NO":999,"REV_AT_EPOCH":21305,"BSTAR":0.0012494814,"MEAN_MOTION_DOT":0.00000449,"MEAN_MOTION_DDOT":0},{"OBJECT_NAME":"ONEWEB-0457","OBJECT_ID":"2022-012AB","EPOCH":"2026-07-15T22:54:17.769312","CLASSIFICATION_TYPE":"U","MEAN_MOTION":13.10374836,"ECCENTRICITY":0.00020999,"INCLINATION":87.8817,"RA_OF_ASC_NODE":30.5382,"ARG_OF_PERICENTER":79.6446,"MEAN_ANOMALY":280.4918,"EPHEMERIS_TYPE":0,"NORAD_CAT_ID":51647,"ELEMENT_SET_NO":999,"REV_AT_EPOCH":21311,"BSTAR":-0.0024221144,"MEAN_MOTION_DOT":-0.00000833,"MEAN_MOTION_DDOT":0},{"OBJECT_NAME":"ONEWEB-0458","OBJECT_ID":"2022-012AC","EPOCH":"2026-07-15T21:35:06.541728","CLASSIFICATION_TYPE":"U","MEAN_MOTION":13.10375578,"ECCENTRICITY":0.00016305,"INCLINATION":87.8822,"RA_OF_ASC_NODE":30.5375,"ARG_OF_PERICENTER":86.3449,"MEAN_ANOMALY":273.7865,"EPHEMERIS_TYPE":0,"NORAD_CAT_ID":51648,"ELEMENT_SET_NO":999,"REV_AT_EPOCH":21306,"BSTAR":0.0007022476,"MEAN_MOTION_DOT":0.00000258,"MEAN_MOTION_DDOT":0}]}
